NORAD_CAT_ID,OBJECT_NAME,OBJECT_TYPE,EPOCH,MEAN_MOTION,ECCENTRICITY,INCLINATION,RA_OF_ASC_NODE,ARG_OF_PERICENTER,MEAN_ANOMALY,BSTAR,MEAN_MOTION_DOT,MEAN_MOTION_DDOT,TLE_LINE0,TLE_LINE1,TLE_LINE2,SEMIMAJOR_AXIS,PERIOD,APOGEE,PERIGEE,DECAYED
53915.0,STARLINK-5017,PAYLOAD,2022-10-09 14:00:01,15.73250977,0.0001041,53.2185,180.6364,102.8972,134.7272,1.8843e-05,2.031e-05,0.0,0 STARLINK-5017,1 53915U 22119AF  22282.58334491  .00002031  00000-0  18843-4 0  9995,2 53915  53.2185 180.6364 0001041 102.8972 134.7272 15.73250977  1308,6727.75,91.53,350.315,348.914,0.0
53915.0,STARLINK-5017,PAYLOAD,2022-10-09 22:00:00,15.73272242,0.0001,53.2187,178.9881,96.7623,229.85,-0.00082445,-0.00115106,0.0,0 STARLINK-5017,1 53915U 22119AF  22282.91667824 -.00115106  00000-0 -82445-3 0  9999,2 53915  53.2187 178.9881 0001000  96.7623 229.8500 15.73272242  1302,6727.689,91.529,350.227,348.881,0.0
53915.0,STARLINK-5017,PAYLOAD,2022-10-10 04:00:00,15.73196114,9.96e-05,53.2181,177.7484,85.2779,218.074,-0.00026438,-0.0003754999999999,0.0,0 STARLINK-5017,1 53915U 22119AF  22283.16667824 -.00037550  00000-0 -26438-3 0  9993,2 53915  53.2181 177.7484 0000996  85.2779 218.0740 15.73196114  2827,6727.906,91.533,350.441,349.101,0.0
53915.0,STARLINK-5017,PAYLOAD,2022-10-10 14:00:01,15.73211272,0.0001105,53.2179,175.6869,105.4859,39.1246,0.00019422,0.00026737,0.0,0 STARLINK-5017,1 53915U 22119AF  22283.58334491  .00026737  00000-0  19422-3 0  9998,2 53915  53.2179 175.6869 0001105 105.4859  39.1246 15.73211272  2898,6727.863,91.533,350.471,348.985,0.0
53915.0,STARLINK-5017,PAYLOAD,2022-10-10 20:00:01,15.73385737,0.0001415,53.2179,174.4443,100.9698,20.3247,-0.0029546999999999,-0.00399392,0.0,0 STARLINK-5017,1 53915U 22119AF  22283.83334491 -.00399392  00000-0 -29547-2 0  9996,2 53915  53.2179 174.4443 0001415 100.9698  20.3247 15.73385737  2934,6727.366,91.522,350.18300000000005,348.279,0.0
53915.0,STARLINK-5017,PAYLOAD,2022-10-10 22:00:01,15.73420797,0.0001351,53.2177,174.0311,101.026,132.5778,-0.0045978,-0.00607106,0.0,0 STARLINK-5017,1 53915U 22119AF  22283.91668981 -.00607106  00000-0 -45978-2 0  9990,2 53915  53.2177 174.0311 0001351 101.0260 132.5778 15.73420797  1309,6727.266,91.52,350.04,348.222,0.0
53915.0,STARLINK-5017,PAYLOAD,2022-10-11 04:00:00,15.73283998,8.89e-05,53.2168,172.7997,101.8465,108.4905,-0.0001824,-0.0002623,0.0,0 STARLINK-5017,1 53915U 22119AF  22284.16667824 -.00026230  00000-0 -18240-3 0  9999,2 53915  53.2168 172.7997 0000889 101.8465 108.4905 15.73283998  2983,6727.656,91.528,350.119,348.923,0.0
53915.0,STARLINK-5017,PAYLOAD,2022-10-11 12:00:00,15.72924842,0.0001568,53.2179,171.1396,90.717,208.7474,-0.00017986,-0.00025489,0.0,0 STARLINK-5017,1 53915U 22119AF  22284.50001157 -.00025489  00000-0 -17986-3 0  9999,2 53915  53.2179 171.1396 0001568  90.7170 208.7474 15.72924842  3036,6728.68,91.549,351.6,349.49,0.0
53915.0,STARLINK-5017,PAYLOAD,2022-10-11 14:00:01,15.73056672,0.0001102,53.2174,170.725,94.6779,316.6545,0.0016726,0.0023945999999999,0.0,0 STARLINK-5017,1 53915U 22119AF  22284.58334491  .00239460  00000-0  16726-2 0  9991,2 53915  53.2174 170.7250 0001102  94.6779 316.6545 15.73056672  1301,6728.304,91.542,350.91,349.427,0.0
53915.0,STARLINK-5017,PAYLOAD,2022-10-11 20:00:01,15.73301227,7.809999999999999e-05,53.2177,169.5041,107.4412,280.5693,0.00017295,0.00023826,0.0,0 STARLINK-5017,1 53915U 22119AF  22284.83335648  .00023826  00000-0  17295-3 0  9994,2 53915  53.2177 169.5041 0000781 107.4412 280.5693 15.73301227  3097,6727.607,91.527,349.997,348.946,0.0
53915.0,STARLINK-5017,PAYLOAD,2022-10-11 22:00:00,15.73301698,7.509999999999998e-05,53.2175,169.0923,100.3362,39.8721,0.00024973,0.00034725,0.0,0 STARLINK-5017,1 53915U 22119AF  22284.91667824  .00034725  00000-0  24973-3 0  9998,2 53915  53.2175 169.0923 0000751 100.3362  39.8721 15.73301698  1303,6727.605,91.527,349.975,348.965,0.0
53915.0,STARLINK-5017,PAYLOAD,2022-10-12 04:00:00,15.73191306,7.950000000000001e-05,53.2173,167.8534,92.7651,24.1641,0.00015954,0.0002182,0.0,0 STARLINK-5017,1 53915U 22119AF  22285.16667824  .00021820  00000-0  15954-3 0  9997,2 53915  53.2173 167.8534 0000795  92.7651  24.1641 15.73191306  3143,6727.92,91.534,350.32,349.25,0.0
53915.0,STARLINK-5017,PAYLOAD,2022-10-12 12:00:00,15.73200989,8.88e-05,53.2174,166.1956,104.567,101.2989,-0.00028551,-0.00040496,0.0,0 STARLINK-5017,1 53915U 22119AF  22285.50001157 -.00040496  00000-0 -28551-3 0  9995,2 53915  53.2174 166.1956 0000888 104.5670 101.2989 15.73200989  3195,6727.892,91.533,350.355,349.16,0.0
53915.0,STARLINK-5017,PAYLOAD,2022-10-12 14:00:01,15.73187098,9.67e-05,53.2172,165.7813,104.9626,213.1369,-0.00013114,-0.00018971,0.0,0 STARLINK-5017,1 53915U 22119AF  22285.58334491 -.00018971  00000-0 -13114-3 0  9995,2 53915  53.2172 165.7813 0000967 104.9626 213.1369 15.73187098  1304,6727.932,91.534,350.4480000000001,349.146,0.0
53915.0,STARLINK-5017,PAYLOAD,2022-10-12 20:00:01,15.73164598,9.54e-05,53.2175,164.5408,94.718,200.065,0.00043545,0.00060843,0.0,0 STARLINK-5017,1 53915U 22119AF  22285.83334491  .00060843  00000-0  43545-3 0  9997,2 53915  53.2175 164.5408 0000954  94.7180 200.0650 15.73164598  3244,6727.996,91.535,350.50300000000016,349.219,0.0
53915.0,STARLINK-5017,PAYLOAD,2022-10-12 22:00:00,15.73197483,9.66e-05,53.2175,164.1276,88.3321,318.6673,7.8908e-05,0.00010467,0.0,0 STARLINK-5017,1 53915U 22119AF  22285.91667824  .00010467  00000-0  78908-4 0  9994,2 53915  53.2175 164.1276 0000966  88.3321 318.6673 15.73197483  1307,6727.901999999999,91.533,350.417,349.117,0.0
53915.0,STARLINK-5017,PAYLOAD,2022-10-13 14:00:01,15.73009144,0.0001051,53.2167,160.8295,101.6125,123.3766,0.0018677,0.00267838,0.0,0 STARLINK-5017,1 53915U 22119AF  22286.58334491  .00267838  00000-0  18677-2 0  9990,2 53915  53.2167 160.8295 0001051 101.6125 123.3766 15.73009144  1309,6728.439,91.544,351.01199999999994,349.597,0.0
53915.0,STARLINK-5017,PAYLOAD,2022-10-13 16:00:00,15.73063744,0.0001088,53.2169,160.4158,101.3428,235.8283,0.0015571,0.00222494,0.0,0 STARLINK-5017,1 53915U 22119AF  22286.66667824  .00222494  00000-0  15571-2 0  9997,2 53915  53.2169 160.4158 0001088 101.3428 235.8283 15.73063744  3376,6728.284000000002,91.541,350.881,349.417,0.0
53915.0,STARLINK-5017,PAYLOAD,2022-10-13 20:00:01,15.73205626,0.0001044,53.2174,159.5893,99.0322,102.5989,-6.4362e-06,-1.523e-05,0.0,0 STARLINK-5017,1 53915U 22119AF  22286.83335648 -.00001523  00000-0 -64362-5 0  9997,2 53915  53.2174 159.5893 0001044  99.0322 102.5989 15.73205626  3409,6727.879,91.533,350.44699999999995,349.042,0.0
53915.0,STARLINK-5017,PAYLOAD,2022-10-13 22:00:00,15.73203886,0.0001039,53.2173,159.1772,94.0207,219.7796,4.4296e-06,2e-08,0.0,0 STARLINK-5017,1 53915U 22119AF  22286.91667824  .00000002  00000-0  44296-5 0  9993,2 53915  53.2173 159.1772 0001039  94.0207 219.7796 15.73203886  1301,6727.884,91.533,350.4480000000001,349.05,0.0
53915.0,STARLINK-5017,PAYLOAD,2022-10-14 06:00:00,15.73264832,0.0001036999999999,53.2167,157.5369,93.441,309.3522,-0.0015065,-0.00207483,0.0,0 STARLINK-5017,1 53915U 22119AF  22287.25001157 -.00207483  00000-0 -15065-2 0  9995,2 53915  53.2167 157.5369 0001037  93.4410 309.3522 15.73264832  3476,6727.71,91.529,350.273,348.87800000000016,0.0
53915.0,STARLINK-5017,PAYLOAD,2022-10-14 14:00:01,15.73120269,0.0001381,53.2173,155.8792,102.856,28.8535,0.0009464,0.00133879,0.0,0 STARLINK-5017,1 53915U 22119AF  22287.58334491  .00133879  00000-0  94640-3 0  9993,2 53915  53.2173 155.8792 0001381 102.8560  28.8535 15.73120269  3525,6728.121999999999,91.538,350.917,349.05800000000005,0.0
53915.0,STARLINK-5017,PAYLOAD,2022-10-14 20:00:01,15.73203557,0.0001382,53.2175,154.6405,98.7494,9.6204,1.0472e-05,8.5e-06,0.0,0 STARLINK-5017,1 53915U 22119AF  22287.83334491  .00000850  00000-0  10472-4 0  9995,2 53915  53.2175 154.6405 0001382  98.7494   9.6204 15.73203557  3561,6727.885,91.533,350.68,348.82,0.0
53915.0,STARLINK-5017,PAYLOAD,2022-10-15 14:00:01,15.73237141,0.0001242,53.2162,150.9464,108.3786,290.3086,-0.00023497,-0.00033517,0.0,0 STARLINK-5017,1 53915U 22119AF  22288.58334491 -.00033517  00000-0 -23497-3 0  9996,2 53915  53.2162 150.9464 0001242 108.3786 290.3086 15.73237141  3684,6727.7890000000025,91.531,350.49,348.819,0.0
53915.0,STARLINK-5017,PAYLOAD,2022-10-15 20:00:01,15.73394607,0.0001022,53.2166,149.7028,100.7324,274.728,-0.0036996999999999,-0.0049453999999999,0.0,0 STARLINK-5017,1 53915U 22119AF  22288.83335648 -.00494540  00000-0 -36997-2 0  9994,2 53915  53.2166 149.7028 0001022 100.7324 274.7280 15.73394607  3717,6727.34,91.522,349.89300000000014,348.51800000000014,0.0
53915.0,STARLINK-5017,PAYLOAD,2022-10-15 22:00:01,15.73399594,0.0001075,53.2167,149.2893,101.3866,26.3209,-0.0051259999999999,-0.00671025,0.0,0 STARLINK-5017,1 53915U 22119AF  22288.91668981 -.00671025  00000-0 -51260-2 0  9997,2 53915  53.2167 149.2893 0001075 101.3866  26.3209 15.73399594  1304,6727.326,91.522,349.914,348.468,0.0
53915.0,STARLINK-5017,PAYLOAD,2022-10-16 04:00:00,15.73105989,0.0001264,53.2163,148.0618,93.4304,10.8741,0.00012759,0.00017252,0.0,0 STARLINK-5017,1 53915U 22119AF  22289.16667824  .00017252  00000-0  12759-3 0  9995,2 53915  53.2163 148.0618 0001264  93.4304  10.8741 15.73105989  3775,6728.163000000001,91.539,350.879,349.17800000000005,0.0
53915.0,STARLINK-5017,PAYLOAD,2022-10-16 14:00:01,15.73125023,0.0001374,53.2165,145.9986,104.9489,200.3869,0.00069214,0.00097336,0.0,0 STARLINK-5017,1 53915U 22119AF  22289.58334491  .00097336  00000-0  69214-3 0  9991,2 53915  53.2165 145.9986 0001374 104.9489 200.3869 15.73125023  1300,6728.109,91.538,350.898,349.05,0.0
53915.0,STARLINK-5017,PAYLOAD,2022-10-16 20:00:01,15.73210268,0.0001238,53.2162,144.7623,98.4746,183.508,-0.00039151,-0.0005522999999999,0.0,0 STARLINK-5017,1 53915U 22119AF  22289.83334491 -.00055230  00000-0 -39151-3 0  9995,2 53915  53.2162 144.7623 0001238  98.4746 183.5080 15.73210268  3871,6727.866,91.533,350.564,348.898,0.0
